H-2A R/B                
1 28932U 06002B   26086.42322089  .00011470  00000+0  56709-3 0  9996
2 28932  98.2443 234.9807 0052384 180.3934 179.7264 15.16801424 97126
RESURS-DK 1             
1 29228U 06021A   26086.71881713  .00002192  00000+0  13048-3 0  9992
2 29228  69.9337 190.3856 0001090  58.0964 302.0308 15.12856516 90258
CZ-4B R/B               
1 29507U 06046C   26086.68276461  .00004355  00000+0  22048-3 0  9996
2 29507  97.5561 131.5422 0032629 202.6193 157.3604 15.17079136 62779
CZ-2C R/B               
1 31114U 07010B   26086.83160510  .00000128  00000+0  77814-4 0  9995
2 31114  98.3998 199.2028 0058028 240.8462 118.6901 14.20252534982292
COSMO-SKYMED 1          
1 31598U 07023A   26086.85018398  .00003088  00000+0  27592-3 0  9998
2 31598  97.8878 278.0303 0000935  97.4773 262.6554 14.96662152 17620
COSMOS 2428             
1 31792U 07029A   26086.65823659 -.00000050  00000+0 -11861-5 0  9994
2 31792  70.9436 165.6314 0009691 258.6347 101.3686 14.12948202966637
SL-16 R/B               
1 31793U 07029B   26086.89682830  .00000062  00000+0  56775-4 0  9998
2 31793  70.9749 134.1136 0002668 277.7529 253.9641 14.14843300967944
KORONAS-FOTON           
1 33504U 09003A   26086.72167266  .00013152  00000+0  28905-3 0  9994
2 33504  82.4275 257.1214 0011773  91.4339 268.8258 15.43788912948520
CZ-2C R/B               
1 37731U 11030B   26086.84941493  .00001467  00000+0  19097-3 0  9996
2 37731  97.8574  43.7534 0051146 292.0302 121.5262 14.81284285792789
H-2A R/B                
1 38341U 12025E   26086.86386644  .00003610  00000+0  32806-3 0  9997
2 38341  98.4761  55.3701 0042712 252.7863 106.8678 14.95292979750933
SHIJIAN-16 (SJ-16)      
1 39358U 13057A   26086.86314574  .00001687  00000+0  16711-3 0  9994
2 39358  74.9724 150.6858 0015256  65.4412 294.8364 14.92417056674212
SL-4 R/B                
1 39679U 14021B   26086.73990852  .00018474  00000+0  39896-3 0  9998
2 39679  51.6043 249.1796 0095736 168.7371 191.5787 15.39787110659051
